CCSDS_OMM_VERS,COMMENT,CREATION_DATE,ORIGINATOR,OBJECT_NAME,OBJECT_ID,CENTER_NAME,REF_FRAME,TIME_SYSTEM,MEAN_ELEMENT_THEORY,EPOCH,MEAN_MOTION,ECCENTRICITY,INCLINATION,RA_OF_ASC_NODE,ARG_OF_PERICENTER,MEAN_ANOMALY,EPHEMERIS_TYPE,CLASSIFICATION_TYPE,NORAD_CAT_ID,ELEMENT_SET_NO,REV_AT_EPOCH,BSTAR,MEAN_MOTION_DOT,MEAN_MOTION_DDOT,SEMIMAJOR_AXIS,PERIOD,APOAPSIS,PERIAPSIS,OBJECT_TYPE,RCS_SIZE,COUNTRY_CODE,LAUNCH_DATE,SITE,DECAY_DATE,FILE,GP_ID,TLE_LINE0,TLE_LINE1,TLE_LINE2
"2.0","GENERATED VIA SPACE-TRACK.ORG API","2020-11-29T14:36:10","18 SPCS","ORBCOMM FM 30","1999-065A","EARTH","TEME","UTC","SGP4","2020-11-29T11:05:10.269024","14.32940554","0.00055560","45.0343","352.0641","346.8796","13.1906","0","U","25980","999","9655","0.00010237000000","0.00000142","0.0000000000000","7160.055","100.492","785.898","777.942","PAYLOAD","MEDIUM","ORB","1999-12-04","AFETR","","2893391","166551676","0 ORBCOMM FM 30","1 25980U 99065A   20334.46192441  .00000142  00000-0  10237-3 0  9999","2 25980  45.0343 352.0641 0005556 346.8796  13.1906 14.32940554 96552"
"2.0","GENERATED VIA SPACE-TRACK.ORG API","2020-11-29T18:59:51","18 SPCS","CZ-4 DEB","1999-057SK","EARTH","TEME","UTC","SGP4","2020-11-29T07:15:15.180192","14.47062360","0.01160170","98.6952","353.4079","50.5458","6.0900","0","U","35331","999","36324","0.00031155000000","0.00001183","0.0000000000000","7113.396","99.511","817.788","652.733","DEBRIS","SMALL","PRC","1999-10-14","TSC","","2893785","166573237","0 CZ-4 DEB","1 35331U 99057SK  20334.30225903 +.00001183 +00000-0 +31155-3 0  9992","2 35331 098.6952 353.4079 0116017 050.5458 006.0900 14.47062360363246"
"2.0","GENERATED VIA SPACE-TRACK.ORG API","2020-11-28T20:10:50","18 SPCS","ORBCOMM FM 30","1999-065A","EARTH","TEME","UTC","SGP4","2020-11-28T11:39:37.635264","14.32939987","0.00056060","45.0343","356.6514","342.2784","17.7866","0","U","25980","999","9588","0.00009759500000","0.00000128","0.0000000000000","7160.057","100.492","785.936","777.908","PAYLOAD","MEDIUM","ORB","1999-12-04","AFETR","","2892611","166521219","0 ORBCOMM FM 30","1 25980U 99065A   20333.48585226 +.00000128 +00000-0 +97595-4 0  9994","2 25980 045.0343 356.6514 0005606 342.2784 017.7866 14.32939987095882"
"2.0","GENERATED VIA SPACE-TRACK.ORG API","2020-11-28T14:26:10","18 SPCS","CZ-4 DEB","1999-057SK","EARTH","TEME","UTC","SGP4","2020-11-28T07:49:01.260192","14.47059929","0.01160680","98.6954","352.4051","53.4783","318.8405","0","U","35331","999","94087","0.00030760000000","0.00001167","0.0000000000000","7113.404","99.512","817.833","652.705","DEBRIS","SMALL","PRC","1999-10-14","TSC","","2892230","166503610","0 CZ-4 DEB","1 35331U 99057SK  20333.32570903  .00001167  00000-0  30760-3 0  9999","2 35331  98.6954 352.4051 0116068  53.4783 318.8405 14.47059929940877"
"2.0","GENERATED VIA SPACE-TRACK.ORG API","2020-11-28T06:26:10","18 SPCS","ORBCOMM FM 30","1999-065A","EARTH","TEME","UTC","SGP4","2020-11-28T03:17:38.821632","14.32939821","0.00056220","45.0344","358.2896","340.5840","19.4792","0","U","25980","999","9636","0.00009695200000","0.00000127","0.0000000000000","7160.057","100.492","785.948","777.897","PAYLOAD","MEDIUM","ORB","1999-12-04","AFETR","","2891844","166495077","0 ORBCOMM FM 30","1 25980U 99065A   20333.13725488  .00000127  00000-0  96952-4 0  9997","2 25980  45.0344 358.2896 0005622 340.5840  19.4792 14.32939821 96364"
"2.0","GENERATED VIA SPACE-TRACK.ORG API","2020-11-28T01:07:54","18 SPCS","ORBCOMM FM 30","1999-065A","EARTH","TEME","UTC","SGP4","2020-11-27T18:55:40.011456","14.32939635","0.00056440","45.0344","359.9280","338.9895","21.0719","0","U","25980","999","9578","0.00009585300000","0.00000124","0.0000000000000","7160.058","100.492","785.964","777.882","PAYLOAD","MEDIUM","ORB","1999-12-04","AFETR","","2891699","166478619","0 ORBCOMM FM 30","1 25980U 99065A   20332.78865754 +.00000124 +00000-0 +95853-4 0  9994","2 25980 045.0344 359.9280 0005644 338.9895 021.0719 14.32939635095780"
"2.0","GENERATED VIA SPACE-TRACK.ORG API","2020-11-27T20:30:34","18 SPCS","ORBCOMM FM 30","1999-065A","EARTH","TEME","UTC","SGP4","2020-11-27T10:33:41.200416","14.32939426","0.00056570","45.0344","1.5663","337.3878","22.6718","0","U","25980","999","9573","0.00009513900000","0.00000122","0.0000000000000","7160.059","100.492","785.974","777.873","PAYLOAD","MEDIUM","ORB","1999-12-04","AFETR","","2891346","166448002","0 ORBCOMM FM 30","1 25980U 99065A   20332.44006019 +.00000122 +00000-0 +95139-4 0  9993","2 25980 045.0344 001.5663 0005657 337.3878 022.6718 14.32939426095732"
"2.0","GENERATED VIA SPACE-TRACK.ORG API","2020-11-27T20:30:34","18 SPCS","CZ-4 DEB","1999-057SK","EARTH","TEME","UTC","SGP4","2020-11-27T07:07:28.077600","14.47057351","0.01161120","98.6956","351.3485","56.5687","359.1141","0","U","35331","999","36295","0.00030226000000","0.00001146","0.0000000000000","7113.412","99.512","817.873","652.682","DEBRIS","SMALL","PRC","1999-10-14","TSC","","2891346","166455746","0 CZ-4 DEB","1 35331U 99057SK  20332.29685275 +.00001146 +00000-0 +30226-3 0  9997","2 35331 098.6956 351.3485 0116112 056.5687 359.1141 14.47057351362954"
"2.0","GENERATED VIA SPACE-TRACK.ORG API","2020-11-27T04:57:55","18 SPCS","CZ-4 DEB","1999-057SK","EARTH","TEME","UTC","SGP4","2020-11-26T20:02:49.475904","14.47055999","0.01161360","98.6957","350.8745","57.9530","114.6779","0","U","35331","999","36288","0.00029176000000","0.00001104","0.0000000000000","7113.417","99.512","817.894","652.669","DEBRIS","SMALL","PRC","1999-10-14","TSC","","2890601","166417346","0 CZ-4 DEB","1 35331U 99057SK  20331.83529486 +.00001104 +00000-0 +29176-3 0  9993","2 35331 098.6957 350.8745 0116136 057.9530 114.6779 14.47055999362885"
"2.0","GENERATED VIA SPACE-TRACK.ORG API","2020-11-26T21:36:11","18 SPCS","ORBCOMM FM 30","1999-065A","EARTH","TEME","UTC","SGP4","2020-11-26T19:30:07.323264","14.32939036","0.00056920","45.0344","4.5152","334.4737","25.5828","0","U","25980","999","9617","0.00009036300000","0.00000108","0.0000000000000","7160.060","100.492","786.001","777.850","PAYLOAD","MEDIUM","ORB","1999-12-04","AFETR","","2890197","166395770","0 ORBCOMM FM 30","1 25980U 99065A   20331.81258476  .00000108  00000-0  90363-4 0  9997","2 25980  45.0344   4.5152 0005692 334.4737  25.5828 14.32939036 96179"
"2.0","GENERATED VIA SPACE-TRACK.ORG API","2020-11-26T20:45:39","18 SPCS","ORBCOMM FM 30","1999-065A","EARTH","TEME","UTC","SGP4","2020-11-26T12:48:32.266656","14.32938873","0.00057060","45.0344","5.8259","333.2102","26.8450","0","U","25980","999","9560","0.00009087200000","0.00000110","0.0000000000000","7160.061","100.492","786.011","777.840","PAYLOAD","MEDIUM","ORB","1999-12-04","AFETR","","2890085","166357456","0 ORBCOMM FM 30","1 25980U 99065A   20331.53370679 +.00000110 +00000-0 +90872-4 0  9994","2 25980 045.0344 005.8259 0005706 333.2102 026.8450 14.32938873095600"
"2.0","GENERATED VIA SPACE-TRACK.ORG API","2020-11-26T12:06:10","18 SPCS","CZ-4 DEB","1999-057SK","EARTH","TEME","UTC","SGP4","2020-11-26T07:41:29.251680","14.47055012","0.01161620","98.6958","350.3458","59.4992","312.7936","0","U","35331","999","94058","0.00029838000000","0.00001131","0.0000000000000","7113.420","99.512","817.916","652.654","DEBRIS","SMALL","PRC","1999-10-14","TSC","","2889787","166343803","0 CZ-4 DEB","1 35331U 99057SK  20331.32047745  .00001131  00000-0  29838-3 0  9995","2 35331  98.6958 350.3458 0116162  59.4992 312.7936 14.47055012940581"
"2.0","GENERATED VIA SPACE-TRACK.ORG API","2020-11-26T03:25:20","18 SPCS","ORBCOMM FM 30","1999-065A","EARTH","TEME","UTC","SGP4","2020-11-25T20:04:34.603968","14.32938440","0.00057390","45.0344","9.1025","330.0198","30.0319","0","U","25980","999","9550","0.00008568600000","0.00000096","0.0000000000000","7160.062","100.492","786.036","777.818","PAYLOAD","MEDIUM","ORB","1999-12-04","AFETR","","2889413","166299983","0 ORBCOMM FM 30","1 25980U 99065A   20330.83651162 +.00000096 +00000-0 +85686-4 0  9995","2 25980 045.0344 009.1025 0005739 330.0198 030.0319 14.32938440095504"
"2.0","GENERATED VIA SPACE-TRACK.ORG API","2020-11-25T22:26:10","18 SPCS","ORBCOMM FM 30","1999-065A","EARTH","TEME","UTC","SGP4","2020-11-25T15:03:23.306112","14.32938307","0.00057510","45.0344","10.0855","329.0910","30.9597","0","U","25980","999","9600","0.00008560900000","0.00000095","0.0000000000000","7160.063","100.492","786.045","777.810","PAYLOAD","MEDIUM","ORB","1999-12-04","AFETR","","2888858","166287654","0 ORBCOMM FM 30","1 25980U 99065A   20330.62735308  .00000095  00000-0  85609-4 0  9991","2 25980  45.0344  10.0855 0005751 329.0910  30.9597 14.32938307 96005"
"2.0","GENERATED VIA SPACE-TRACK.ORG API","2020-11-25T17:37:42","18 SPCS","ORBCOMM FM 30","1999-065A","EARTH","TEME","UTC","SGP4","2020-11-25T11:42:35.776512","14.32938166","0.00057540","45.0344","10.7408","328.4588","31.5913","0","U","25980","999","9545","0.00008199600000","0.00000085","0.0000000000000","7160.063","100.492","786.048","777.808","PAYLOAD","MEDIUM","ORB","1999-12-04","AFETR","","2888711","166270257","0 ORBCOMM FM 30","1 25980U 99065A   20330.48791408 +.00000085 +00000-0 +81996-4 0  9992","2 25980 045.0344 010.7408 0005754 328.4588 031.5913 14.32938166095453"
"2.0","GENERATED VIA SPACE-TRACK.ORG API","2020-11-25T17:37:42","18 SPCS","CZ-4 DEB","1999-057SK","EARTH","TEME","UTC","SGP4","2020-11-25T07:00:01.077696","14.47052208","0.01162050","98.6959","349.2892","62.5851","353.3910","0","U","35331","999","36266","0.00027791000000","0.00001050","0.0000000000000","7113.429","99.512","817.956","652.633","DEBRIS","SMALL","PRC","1999-10-14","TSC","","2888711","166277130","0 CZ-4 DEB","1 35331U 99057SK  20330.29167914 +.00001050 +00000-0 +27791-3 0  9997","2 35331 098.6959 349.2892 0116205 062.5851 353.3910 14.47052208362662"
